satname,norad_id,inclination_deg,eccentricity,mean_motion_rev_per_day,perigee_km,apogee_km,l1,l2
STARLINK-1008,44714,53.1522,0.0002437,15.50022649,415.00398582873277,418.31576982698607,1 44714U 19074B   26166.89260739  .00069037  00000+0  12076-2 0  9998,2 44714  53.1522  74.9283 0002437 125.0994 235.0244 15.50022649364017
STARLINK-1012,44718,53.1563,0.0002247,15.503005,414.32138486271106,417.374601718695,1 44718U 19074F   26166.95357959  .00064896  00000+0  11252-2 0  9993,2 44718  53.1563  74.9087 0002247 134.5331 225.5862 15.50300500364012
STARLINK-1017,44723,53.0469,0.0004687,15.32082862,466.3894073677002,472.8084750389853,1 44723U 19074L   26166.90058114  .00041935  00000+0  13390-2 0  9999,2 44723  53.0469  75.4591 0004687  67.0018 293.1476 15.32082862363985
STARLINK-1020,44725,53.1568,0.0004019,15.55524296,397.9046076451268,403.35337975086077,1 44725U 19074N   26166.11316781  .00082930  00000+0  11862-2 0  9993,2 44725  53.1568 102.7128 0004019  97.7098 262.4370 15.55524296363535
STARLINK-1036,44741,53.0421,0.0002541,15.70093759,356.91699054978744,360.34061493074114,1 44741U 19074AE  26167.00431699  .00050444  00000+0  41201-3 0  9992,2 44741  53.0421  66.5342 0002541  32.4852 327.6321 15.70093759364114
STARLINK-1039,44744,53.0575,0.0003835,15.29088634,475.9058837869661,481.1649515313111,1 44744U 19074AH  26166.16100855  .00035131  00000+0  12338-2 0  9992,2 44744  53.0575 124.4600 0003835  64.1452 295.9942 15.29088634363231
STARLINK-1042,44747,53.0428,0.0002414,15.54561245,401.7912660962984,405.06540584050254,1 44747U 19074AL  26166.77643569  .00023966  00000+0  36286-3 0  9998,2 44747  53.0428 342.4428 0002414 112.9523 247.1742 15.54561245365303
STARLINK-1043,44748,53.0496,8.96e-05,15.63155999,377.941893267689,379.1526910928469,1 44748U 19074AM  26166.94679901  .00032932  00000+0  35837-3 0  9991,2 44748  53.0496  77.4847 0000896 103.1445 256.9669 15.63155999363967
STARLINK-1046,44751,53.0464,0.0006921,15.55764051,395.2414344967783,404.6236383490941,1 44751U 19074AQ  26166.12015762  .00086278  00000+0  12216-2 0  9991,2 44751  53.0464 103.5221 0006921  83.8272 276.3527 15.55764051363527
STARLINK-1047,44752,53.0698,0.0003611,15.34689197,459.3739036848274,464.31373783357867,1 44752U 19074AR  26166.89851323  .00007151  00000+0  22056-3 0  9994,2 44752  53.0698  46.4647 0003611 127.9388 232.1940 15.34689197364417
STARLINK-1048,44753,53.0453,0.0006188,15.68152031,360.01660088974313,368.3609032405002,1 44753U 19074AS  26166.94349092  .00045283  00000+0  40107-3 0  9991,2 44753  53.0453  48.9558 0006188  82.6396 277.5323 15.68152031364353
STARLINK-1063,44768,53.1548,0.0002414,15.49975653,415.1569276635755,418.43752190730174,1 44768U 19074BH  26166.97007800  .00061738  00000+0  10836-2 0  9996,2 44768  53.1548 115.5884 0002414  92.9620 267.1666 15.49975653363468
STARLINK-1067,44771,53.0439,0.0001709,15.78183268,334.4406762832914,336.7354275060288,1 44771U 19074BL  26166.94952271  .00083249  00000+0  47582-3 0  9998,2 44771  53.0439  80.1523 0001709 154.5353 205.5751 15.78183268363928
STARLINK-1068,44772,53.0417,0.0001983,15.76575472,338.81948996009123,341.4839632690664,1 44772U 19074BM  26166.96579306  .00069160  00000+0  42592-3 0  9997,2 44772  53.0417  53.8549 0001983 176.8635 183.2397 15.76575472364282
STARLINK-1114,44927,53.0391,0.0005115,15.65910979,367.168078107381,374.072056587278,1 44927U 20001P   26166.84384133  .00032555  00000+0  31772-3 0  9996,2 44927  53.0391 212.1100 0005115  20.9784 339.1440 15.65910979355401
STARLINK-1123,44930,53.1426,0.0007416,15.59400732,384.3715398702525,394.4091364181886,1 44930U 20001S   26166.91816333  .00077075  00000+0  95417-3 0  9992,2 44930  53.1426 239.2335 0007416 339.9563  20.1158 15.59400732355046
STARLINK-1094,44941,53.1508,0.0007576,15.55110111,396.69606422344896,406.9690741146542,1 44941U 20001AD  26166.83311022  .00050201  00000+0  73423-3 0  9995,2 44941  53.1508 214.8995 0007576   2.3908 357.7138 15.55110111355380
STARLINK-1122,44949,53.1529,0.0007081,15.55391201,396.21537667231587,405.8160127185429,1 44949U 20001AM  26166.84409582  .00066036  00000+0  95197-3 0  9998,2 44949  53.1529 215.4560 0007081   0.9207 359.1816 15.55391201355372
STARLINK-1080,44961,53.0429,0.00031,15.68368204,361.4792652862943,365.659123126703,1 44961U 20001AZ  26166.26599139  .00024368  00000+0  21694-3 0  9999,2 44961  53.0429 175.1984 0003100  48.4864 311.6417 15.68368204355876
STARLINK-1090,44968,53.1471,0.0005738,15.51518935,408.3942232740683,416.1869179541045,1 44968U 20001BG  26166.91479777  .00060550  00000+0  10059-2 0  9998,2 44968  53.1471 203.0557 0005738   8.7852 351.3257 15.51518935355551
STARLINK-1132,45044,53.1491,0.0004012,15.56782546,394.2577576979602,399.6941083154052,1 45044U 20006A   26166.67072815  .00077647  00000+0  10613-2 0  9995,2 45044  53.1491 144.9730 0004012  49.6864 310.4498 15.56782546352125
STARLINK-1131,45047,53.1548,0.0005922,15.5330277,403.07254740786993,411.1089711659697,1 45047U 20006D   26166.31582168  .00058032  00000+0  90483-3 0  9997,2 45047  53.1548 179.7112 0005922  23.1646 336.9631 15.53302770351605
STARLINK-1134,45048,53.0225,0.0007786,15.60352996,381.36958015539767,391.903685656559,1 45048U 20006E   26166.91668981  .00130858  00000+0  15474-2 0  9995,2 45048  53.0225 126.1740 0007786  99.5194 315.0398 15.60352996  5983
STARLINK-1156,45054,53.1546,0.0004864,15.35692704,455.53822979049346,462.1892641171298,1 45054U 20006L   26166.74171403  .00039595  00000+0  11291-2 0  9990,2 45054  53.1546 184.2593 0004864  17.6839 342.4332 15.35692704351576
STARLINK-1166,45060,53.0435,0.0006009,15.60856473,381.11775885822954,389.2459154367143,1 45060U 20006S   26166.90767486  .00085377  00000+0  99848-3 0  9991,2 45060  53.0435 159.2033 0006009  35.8598 324.2817 15.60856473351925
STARLINK-1169,45061,53.1532,0.0006306,15.39129217,444.3780218948268,452.9880072972355,1 45061U 20006T   26166.75853734  .00044252  00000+0  11272-2 0  9998,2 45061  53.1532 182.5723 0006306 357.9802   2.1176 15.39129217351606
STARLINK-1171,45062,53.0381,0.0003163,15.75562071,340.9063127735117,345.1581244211966,1 45062U 20006U   26166.14750279  .00130387  00000+0  82967-3 0  9997,2 45062  53.0381 128.0085 0003163  31.1070 329.0136 15.75562071352292
STARLINK-1133,45064,53.1555,0.0005478,15.35611669,455.3588320475492,462.849713586048,1 45064U 20006W   26166.25753777  .00038007  00000+0  10872-2 0  9998,2 45064  53.1555 163.3093 0005478  29.0676 331.0631 15.35611669351834
STARLINK-1167,45071,53.1559,0.0004234,15.38111908,448.80111069205395,454.584610618057,1 45071U 20006AD  26166.70299183  .00038789  00000+0  10237-2 0  9994,2 45071  53.1559 160.1493 0004234   3.7996 356.3040 15.38111908351915
STARLINK-1168,45072,53.1551,0.0005108,15.35830525,454.96258797254177,461.94685007269527,1 45072U 20006AE  26166.69195338  .00041633  00000+0  11811-2 0  9991,2 45072  53.1551 161.4608 0005108  32.1053 328.0261 15.35830525351899
STARLINK-1172,45074,53.1522,0.0005059,15.39171682,445.10382352909164,452.0110729718308,1 45074U 20006AG  26166.26586979  .00040433  00000+0  10301-2 0  9991,2 45074  53.1522 161.4851 0005059   5.6196 354.4864 15.39171682351851
STARLINK-1153,45080,53.1556,0.0005774,15.38237441,447.3779456867551,455.2646041026037,1 45080U 20006AN  26166.29591530  .00045857  00000+0  12021-2 0  9996,2 45080  53.1556 161.9763 0005774 355.7960   4.2995 15.38237441351854
STARLINK-1151,45081,53.047,0.0001753,15.89031297,303.82603589011796,306.16914287715645,1 45081U 20006AP  26166.91668981  .00040349  00000+0  14014-3 0  9997,2 45081  53.0470 112.0090 0001753 158.9568 131.8532 15.89031297  6004
STARLINK-1185,45087,53.158,0.0005859,15.46855564,421.94481194223226,429.91781919441473,1 45087U 20006AV  26166.65405006  .00061677  00000+0  12064-2 0  9990,2 45087  53.1580 139.9334 0005859  43.0539 317.0926 15.46855564352198
STARLINK-1183,45088,53.1565,0.0005326,15.35630054,455.4082154721036,462.6911867461258,1 45088U 20006AW  26166.67266021  .00041672  00000+0  11898-2 0  9992,2 45088  53.1565 146.1794 0005326  45.5148 314.6290 15.35630054352105
STARLINK-1152,45096,53.0329,0.0004155,15.49875517,414.2664810657798,419.9133146178865,1 45096U 20006BE  26166.52085996  .00064709  00000+0  11386-2 0  9993,2 45096  53.0329 100.9708 0004155 101.1102 259.0374 15.49875517352703
STARLINK-1184,45098,53.0495,0.0005474,15.1459951,518.4174397526667,525.9719228773702,1 45098U 20006BG  26166.26373175  .00019286  00000+0  10457-2 0  9993,2 45098  53.0495 163.2140 0005474  52.2299 307.9189 15.14599510351804
STARLINK-1193,45100,53.0464,0.0004496,15.68695977,359.5994102176928,365.660707957225,1 45100U 20006BJ  26166.54698249  .00048640  00000+0  42097-3 0  9992,2 45100  53.0464 111.6190 0004496  11.6009 348.5110 15.68695977352558
STARLINK-1143,45179,53.0311,0.0009293,15.92657636,288.64792990017577,301.0503419323886,1 45179U 20012B   26166.91668981  .00217768  28991-4  62602-3 0  9993,2 45179  53.0311 199.5202 0009293  17.6116  85.2574 15.92657636  6012
STARLINK-1202,45183,53.1564,0.0001639,15.35460876,458.4312115619214,460.6726059862176,1 45183U 20012F   26166.61900095  .00045346  00000+0  13005-2 0  9999,2 45183  53.1564 303.1977 0001639 274.2902  85.7913 15.35460876349961
STARLINK-1216,45185,53.1566,0.0002059,15.35797466,457.1451521741219,459.96050104472033,1 45185U 20012H   26166.66158513  .00049677  00000+0  14076-2 0  9996,2 45185  53.1566 302.8387 0002059 264.1880  95.8889 15.35797466349913
STARLINK-1225,45187,53.1579,0.000199,15.35835625,457.07910557369723,459.8000630542547,1 45187U 20012K   26166.66016265  .00050383  00000+0  14256-2 0  9991,2 45187  53.1579 303.3084 0001990 275.9207  84.1569 15.35835625349955
STARLINK-1230,45189,53.1559,0.0002102,15.3565182,457.54793201214034,460.42225814091034,1 45189U 20012M   26166.67199297  .00048019  00000+0  13677-2 0  9990,2 45189  53.1559 303.3301 0002102 275.4869  84.5894 15.35651820347183
